STARLINK-11388 [DTC]    
1 62092U 24220E   26189.95140018  .00124250  00000+0  95568-3 0  9992
2 62092  43.0009  32.2246 0001787 272.1582  87.9081 15.70882446 94029
STARLINK-11345 [DTC]    
1 62093U 24220F   26190.77267102  .00081362  00000+0  63015-3 0  9997
2 62093  43.0008  27.1994 0002132 284.9460  75.1172 15.70885144 94155
STARLINK-11381 [DTC]    
1 62094U 24220G   26190.70378490  .00118650  00000+0  91482-3 0  9994
2 62094  42.9997  27.5430 0001643 289.9815  70.0875 15.70844921 94146
STARLINK-11369 [DTC]    
1 62095U 24220H   26190.69847644  .00091840  00000+0  71028-3 0  9990
2 62095  42.9994  27.5047 0002301 321.1946  38.8756 15.70874203 94241
STARLINK-11303 [DTC]    
1 62096U 24220J   26189.93016107  .00119045  00000+0  91487-3 0  9997
2 62096  43.0016  32.0542 0002757 259.6586 100.3971 15.70919411 94122
STARLINK-11367 [DTC]    
1 62097U 24220K   26190.68785976  .00108793  00000+0  84035-3 0  9998
2 62097  42.9992  27.4135 0001350 309.8840  50.1909 15.70838214 94246
STARLINK-11386 [DTC]    
1 62098U 24220L   26190.55537605  .00150304  00000+0  11533-2 0  9996
2 62098  43.0005  28.1364 0001721 274.0177  86.0494 15.70849269 94120
STARLINK-11380 [DTC]    
1 62099U 24220M   26190.61365427  .00156639  00000+0  12011-2 0  9994
2 62099  43.0003  27.7143 0001680 307.5371  52.5344 15.70845243 94132
STARLINK-33566          
1 62100U 24220N   26187.18786673  .00000380  00000+0  23349-4 0  9994
2 62100  42.9995 241.6204 0001509 265.9239  94.1440 15.27555482 91487
STARLINK-33545          
1 62101U 24220P   26190.56689875  .00006695  00000+0  25247-3 0  9990
2 62101  43.0002 236.9959 0001382 271.8056  88.2637 15.27595439 91663
STARLINK-33562          
1 62102U 24220Q   26190.12076445  .00011192  00000+0  41539-3 0  9996
2 62102  43.0021 239.6653 0002664 269.1079  90.9467 15.27596844 91599
STARLINK-33554          
1 62103U 24220R   26190.17073112  .00008233  00000+0  30815-3 0  9997
2 62103  43.0035 239.1814 0004177 287.9488  72.0908 15.27599391 91537
STARLINK-33555          
1 62104U 24220S   26190.13875382  .00011113  00000+0  41255-3 0  9994
2 62104  43.0004 239.8011 0001387 256.8813 103.1884 15.27595015 91737
STARLINK-33559          
1 62107U 24220V   26190.20028600  .00012684  00000+0  46947-3 0  9995
2 62107  43.0011 239.4031 0001410 258.3050 101.7644 15.27591596 91775
STARLINK-33553          
1 62108U 24220W   26190.58487495  .00011455  00000+0  42454-3 0  9992
2 62108  43.0014 237.1311 0001287 262.0225  98.0481 15.27626411 91832
STARLINK-33556          
1 62109U 24220X   26190.17843423  .00010022  00000+0  37289-3 0  9994
2 62109  42.9994 239.2371 0003616 289.4441  70.6019 15.27606244 91798
STARLINK-33551          
1 62110U 24220Y   26190.58874498  .00011847  00000+0  43906-3 0  9996
2 62110  43.0033 237.1611 0001857 281.9591  78.1053 15.27599960 91830
STARLINK-32311          
1 62114U 24222A   26190.25289656  .00011289  00000+0  41884-3 0  9995
2 62114  42.9964 154.6800 0001149 253.4953 106.5772 15.27603135 91674
STARLINK-32470          
1 62115U 24222B   26190.65241458  .00007215  00000+0  27142-3 0  9993
2 62115  43.0022 167.2317 0001173 270.1050  89.9667 15.27585060 91556
STARLINK-32502          
1 62116U 24222C   26189.95500351  .00018216  00000+0  66967-3 0  9996
2 62116  42.9993 171.4525 0000565 262.1986  97.8802 15.27588844 91353
STARLINK-32521          
1 62117U 24222D   26190.00673094  .00010186  00000+0  37891-3 0  9992
2 62117  42.9999 167.4057 0001323 271.4939  88.5761 15.27602967 91342
STARLINK-32549          
1 62118U 24222E   26190.63828722  .00008897  00000+0  33225-3 0  9995
2 62118  42.9999 167.1217 0001246 270.2119  89.8590 15.27599310 91463
STARLINK-32535          
1 62119U 24222F   26190.61707120  .00012700  00000+0  46992-3 0  9995
2 62119  42.9991 164.3623 0001487 281.3551  78.7133 15.27602426 91447
STARLINK-32548          
1 62120U 24222G   26190.62301377  .00012860  00000+0  47570-3 0  9992
2 62120  42.9986 167.8632 0001051 287.9742  72.0995 15.27601849 91409
STARLINK-32525          
1 62121U 24222H   26190.31778500  .00009854  00000+0  36696-3 0  9991
2 62121  43.0012 169.0168 0001366 268.1583  91.9113 15.27594225 91369
STARLINK-32628          
1 62122U 24222J   26190.66268682  .00010020  00000+0  37303-3 0  9998
2 62122  43.0014 167.3064 0001609 277.5083  82.5586 15.27589743 91579
STARLINK-32626          
1 62123U 24222K   26190.28965491  .00012037  00000+0  44590-3 0  9995
2 62123  42.9989 169.6614 0001422 263.7315  96.3375 15.27603632 91341
STARLINK-32608          
1 62124U 24222L   26190.65627668  .00009597  00000+0  35761-3 0  9995
2 62124  43.0016 167.2596 0001345 273.7677  86.3021 15.27599536 91393
STARLINK-32488          
1 62125U 24222M   26190.62685934  .00007188  00000+0  27033-3 0  9990
2 62125  43.0002 167.8907 0002555 269.5146  90.5413 15.27598756 91293
STARLINK-32490          
1 62126U 24222N   26190.64085726  .00010362  00000+0  38532-3 0  9990
2 62126  43.0011 167.1390 0001434 267.7758  92.2929 15.27599171 91403
