OBJECT_NAME,OBJECT_ID,EPOCH,MEAN_MOTION,ECCENTRICITY,INCLINATION,RA_OF_ASC_NODE,ARG_OF_PERICENTER,MEAN_ANOMALY,EPHEMERIS_TYPE,CLASSIFICATION_TYPE,NORAD_CAT_ID,ELEMENT_SET_NO,REV_AT_EPOCH,BSTAR,MEAN_MOTION_DOT,MEAN_MOTION_DDOT
STARLINK-11388 [DTC],2024-220E,2026-07-08T22:50:00.975552,15.70882446,.00017872,43.0009,32.2246,272.1582,87.9081,0,U,62092,999,9402,.9556792E-3,.12425E-2,0
STARLINK-11345 [DTC],2024-220F,2026-07-09T18:32:38.776128,15.70885144,.0002132,43.0008,27.1994,284.9460,75.1172,0,U,62093,999,9415,.63015E-3,.81362E-3,0
STARLINK-11381 [DTC],2024-220G,2026-07-09T16:53:27.015360,15.70844921,.0001643,42.9997,27.5430,289.9815,70.0875,0,U,62094,999,9414,.91482E-3,.11865E-2,0
STARLINK-11369 [DTC],2024-220H,2026-07-09T16:45:48.364416,15.70874203,.0002301,42.9994,27.5047,321.1946,38.8756,0,U,62095,999,9424,.71028E-3,.9184E-3,0
STARLINK-11303 [DTC],2024-220J,2026-07-08T22:19:25.916448,15.70919411,.00027575,43.0016,32.0542,259.6586,100.3971,0,U,62096,999,9412,.91486731E-3,.119045E-2,0
STARLINK-11367 [DTC],2024-220K,2026-07-09T16:30:31.083264,15.70838214,.000135,42.9992,27.4135,309.8840,50.1909,0,U,62097,999,9424,.84035E-3,.108793E-2,0
STARLINK-11386 [DTC],2024-220L,2026-07-09T13:19:44.490720,15.70849269,.0001721,43.0005,28.1364,274.0177,86.0494,0,U,62098,999,9412,.11533E-2,.150304E-2,0
STARLINK-11380 [DTC],2024-220M,2026-07-09T14:43:39.728928,15.70845243,.000168,43.0003,27.7143,307.5371,52.5344,0,U,62099,999,9413,.12011E-2,.156639E-2,0
STARLINK-33566,2024-220N,2026-07-06T04:30:31.685472,15.27555482,.0001509,42.9995,241.6204,265.9239,94.1440,0,U,62100,999,9148,.233492E-4,.38E-5,0
STARLINK-33545,2024-220P,2026-07-09T13:36:20.052000,15.27595439,.0001382,43.0002,236.9959,271.8056,88.2637,0,U,62101,999,9166,.25247E-3,.6695E-4,0
STARLINK-33562,2024-220Q,2026-07-09T02:53:54.048480,15.27596844,.00026641,43.0021,239.6653,269.1079,90.9467,0,U,62102,999,9159,.41539045E-3,.11192E-3,0
STARLINK-33554,2024-220R,2026-07-09T04:05:51.168768,15.27599391,.00041774,43.0035,239.1814,287.9488,72.0908,0,U,62103,999,9153,.30814899E-3,.8233E-4,0
STARLINK-33555,2024-220S,2026-07-09T03:19:48.330048,15.27595015,.00013879,43.0004,239.8011,256.8813,103.1884,0,U,62104,999,9173,.41255223E-3,.11113E-3,0
STARLINK-33559,2024-220V,2026-07-09T04:48:24.710400,15.27591596,.00014109,43.0011,239.4031,258.3050,101.7644,0,U,62107,999,9177,.46947178E-3,.12684E-3,0
STARLINK-33553,2024-220W,2026-07-09T14:02:13.195680,15.27626411,.0001287,43.0014,237.1311,262.0225,98.0481,0,U,62108,999,9183,.42454E-3,.11455E-3,0
STARLINK-33556,2024-220X,2026-07-09T04:16:56.717472,15.27606244,.00036161,42.9994,239.2371,289.4441,70.6019,0,U,62109,999,9179,.37289307E-3,.10022E-3,0
STARLINK-33551,2024-220Y,2026-07-09T14:07:47.566272,15.27599960,.0001857,43.0033,237.1611,281.9591,78.1053,0,U,62110,999,9183,.43906E-3,.11847E-3,0
STARLINK-32311,2024-222A,2026-07-09T06:04:10.262784,15.27603135,.00011498,42.9964,154.6800,253.4953,106.5772,0,U,62114,999,9167,.41884403E-3,.11289E-3,0
STARLINK-32470,2024-222B,2026-07-09T15:39:28.619712,15.27585060,.0001173,43.0022,167.2317,270.1050,89.9667,0,U,62115,999,9155,.27142E-3,.7215E-4,0
STARLINK-32502,2024-222C,2026-07-08T22:55:12.303264,15.27588844,.00005657,42.9993,171.4525,262.1986,97.8802,0,U,62116,999,9135,.66967377E-3,.18216E-3,0
STARLINK-32521,2024-222D,2026-07-09T00:09:41.553216,15.27602967,.00013232,42.9999,167.4057,271.4939,88.5761,0,U,62117,999,9134,.37890947E-3,.10186E-3,0
STARLINK-32549,2024-222E,2026-07-09T15:19:08.015808,15.27599310,.0001246,42.9999,167.1217,270.2119,89.8590,0,U,62118,999,9146,.33225E-3,.8897E-4,0
STARLINK-32535,2024-222F,2026-07-09T14:48:34.951680,15.27602426,.0001487,42.9991,164.3623,281.3551,78.7133,0,U,62119,999,9144,.46992E-3,.127E-3,0
STARLINK-32548,2024-222G,2026-07-09T14:57:08.389728,15.27601849,.0001051,42.9986,167.8632,287.9742,72.0995,0,U,62120,999,9140,.4757E-3,.1286E-3,0
STARLINK-32525,2024-222H,2026-07-09T07:37:36.624000,15.27594225,.00013663,43.0012,169.0168,268.1583,91.9113,0,U,62121,999,9136,.36696253E-3,.9854E-4,0
STARLINK-32628,2024-222J,2026-07-09T15:54:16.141248,15.27589743,.0001609,43.0014,167.3064,277.5083,82.5586,0,U,62122,999,9157,.37303E-3,.1002E-3,0
STARLINK-32626,2024-222K,2026-07-09T06:57:06.184224,15.27603632,.00014226,42.9989,169.6614,263.7315,96.3375,0,U,62123,999,9134,.44590214E-3,.12037E-3,0
STARLINK-32608,2024-222L,2026-07-09T15:45:02.305152,15.27599536,.0001345,43.0016,167.2596,273.7677,86.3021,0,U,62124,999,9139,.35761E-3,.9597E-4,0
STARLINK-32488,2024-222M,2026-07-09T15:02:40.646976,15.27598756,.0002555,43.0002,167.8907,269.5146,90.5413,0,U,62125,999,9129,.27033E-3,.7188E-4,0
STARLINK-32490,2024-222N,2026-07-09T15:22:50.067264,15.27599171,.0001434,43.0011,167.1390,267.7758,92.2929,0,U,62126,999,9140,.38532E-3,.10362E-3,0
